[{"OBJECT_NAME":"PROTOMETHEE","OBJECT_ID":"2023-174BT","EPOCH":"2026-03-09T23:28:08.029344","MEAN_MOTION":15.30202663,"ECCENTRICITY":0.00088339,"INCLINATION":97.3826,"RA_OF_ASC_NODE":147.9552,"ARG_OF_PERICENTER":148.5993,"MEAN_ANOMALY":211.5776,"EPHEMERIS_TYPE":0,"CLASSIFICATION_TYPE":"U","NORAD_CAT_ID":58321,"ELEMENT_SET_NO":999,"REV_AT_EPOCH":12979,"BSTAR":0.00015715731,"MEAN_MOTION_DOT":4.52e-5,"MEAN_MOTION_DDOT":0},{"OBJECT_NAME":"STARLINK-34375","OBJECT_ID":"2025-133F","EPOCH":"2026-03-09T10:59:38.524992","MEAN_MOTION":15.30206184,"ECCENTRICITY":0.0001126,"INCLINATION":53.16,"RA_OF_ASC_NODE":117.827,"ARG_OF_PERICENTER":80.7451,"MEAN_ANOMALY":279.3678,"EPHEMERIS_TYPE":0,"CLASSIFICATION_TYPE":"U","NORAD_CAT_ID":64477,"ELEMENT_SET_NO":999,"REV_AT_EPOCH":4115,"BSTAR":0.00073385779,"MEAN_MOTION_DOT":0.00021442,"MEAN_MOTION_DDOT":0}]
